OUFTI-1                 
1 41458U 16025C   21279.38629648  .00002910  00000-0  14007-3 0  9990
2 41458  98.1597  63.4170 0157009  45.7002 315.6977 15.09435562299204
E-ST@R-II               
1 41459U 16025D   21279.86239047  .00004227  00000-0  20400-3 0  9991
2 41459  98.1572  62.8553 0158821  47.3825 314.0651 15.08803968299211
AAUSAT 4                
1 41460U 16025E   21279.85243484  .00005583  00000-0  25407-3 0  9990
2 41460  98.1556  67.3057 0144907  29.3170 331.5991 15.12204008299549
AIST-2D (RS-48)         
1 41465U 16026B   21279.88327810  .00004822  00000-0  13558-3 0  9994
2 41465  97.0892 160.1114 0010333 342.9760  77.1762 15.36911552304546
SAMSAT-218D             
1 41466U 16026C   21279.73263025  .00046517  00000-0  54827-3 0  9997
2 41466  97.1449 188.5866 0002234 185.6604 226.8141 15.61242910306161
NUSAT-1 (FRESCO)        
1 41557U 16033B   21279.86667043  .00004714  00000-0  16433-3 0  9992
2 41557  97.3942  13.2214 0012392 193.3435 286.5190 15.30063150298561
NUSAT-2 (BATATA)        
1 41558U 16033C   21279.85086454  .00004855  00000-0  15856-3 0  9997
2 41558  97.4065  17.5539 0011446 185.1812 323.2083 15.32175956298776
CARTOSAT-2C             
1 41599U 16040A   21279.77017745  .00001272  00000-0  63387-4 0  9991
2 41599  97.3884 336.7927 0013762 354.1277 125.8980 15.19283359293412
SATHYABAMASAT           
1 41600U 16040B   21279.11972453  .00004291  00000-0  16462-3 0  9993
2 41600  97.2610 333.3406 0011145 310.4423  49.5843 15.26955912294035
LAPAN-A3                
1 41603U 16040E   21279.84601293  .00000585  00000-0  30056-4 0  9995
2 41603  97.2452 322.4815 0012695 339.0004 135.7680 15.20118762293504
BIROS                   
1 41604U 16040F   21279.39291101  .00001324  00000-0  59485-4 0  9998
2 41604  97.2505 328.0806 0010776 315.8956  44.1421 15.22811811293785
SWAYAM                  
1 41607U 16040J   21279.36868693  .00004100  00000-0  15933-3 0  9998
2 41607  97.2564 332.2461 0010851 310.5146  49.5147 15.26555726293962
BEESAT-4                
1 41619U 16040W   21279.42256068  .00003851  00000-0  15164-3 0  9993
2 41619  97.2576 332.3736 0008863 303.8171  56.2224 15.26170215281938
3CAT-2                  
1 41732U 16051B   21279.76501390  .00003974  00000-0  14157-3 0  9996
2 41732  97.3739 199.1014 0014171 109.0608 304.7853 15.29428117286512
PRATHAM                 
1 41783U 16059A   21279.38730901  .00000130  00000-0  34177-4 0  9996
2 41783  97.9526 325.6254 0032185 255.4123 104.3510 14.63172057268478
ALSAT 1N                
1 41789U 16059G   21279.74179057  .00000184  00000-0  43436-4 0  9998
2 41789  97.9561 329.9276 0027174 238.3996 121.4544 14.64462177268736
LISHUI 1-01             
1 41845U 16066E   21279.82628698  .00028147  00000-0  33867-2 0  9992
2 41845  98.7331  29.3489 0267883 137.7958 224.4156 14.61502345259656
CARTOSAT-2D             
1 41948U 17008A   21279.39076167  .00001522  00000-0  75355-4 0  9991
2 41948  97.4306 338.0076 0008259 128.2610 231.9360 15.19274205257226
NAYIF-1 (EO-88)         
1 42017U 17008BX  21279.13216569  .00004502  00000-0  16282-3 0  9997
2 42017  97.3058 344.7347 0007485  80.6949 279.5138 15.28911272258165
ZHUHAI-1 02 (CAS-4B)    
1 42759U 17034B   21279.78152778  .00001221  00000-0  86212-4 0  9997
2 42759  43.0185 288.9600 0007019 145.6148 209.7939 15.10418166237979
ZHUHAI-1 01 (CAS-4A)    
1 42761U 17034D   21279.52773061  .00001176  00000-0  83373-4 0  9990
2 42761  43.0193 289.3289 0007376 144.9980 353.0677 15.10504128237944
UCLSAT                  
1 42765U 17036A   21279.40546445  .00003509  00000-0  14138-3 0  9991
2 42765  97.2378 325.4165 0011893 138.8330 221.3808 15.25425061239083
NIUSAT                  
1 42766U 17036B   21279.35665988  .00002551  00000-0  11052-3 0  9998
2 42766  97.2391 321.4393 0016050 139.9923 220.2500 15.23163836238092
CARTOSAT-2E             
1 42767U 17036C   21279.82163565  .00001479  00000-0  73424-4 0  9995
2 42767  97.4933 338.0448 0008547 172.2868 300.1264 15.19240371237855
LITUANICASAT-2          
1 42768U 17036D   21279.36801704  .00005789  00000-0  21854-3 0  9996
2 42768  97.2460 326.5632 0014816 129.1103 231.1457 15.27297394238398
AALTO-1                 
1 42775U 17036L   21279.40159549  .00002116  00000-0  92555-4 0  9990
2 42775  97.2356 321.6705 0014606 138.5161 221.7188 15.23033176238086
URSA MAIOR              
1 42776U 17036M   21279.38361717  .00002314  00000-0  10006-3 0  9990
2 42776  97.2369 322.1855 0014389 137.8776 222.3570 15.23335241238108
COMPASS 2               
1 42777U 17036N   21279.39268706  .00004413  00000-0  17155-3 0  9990
2 42777  97.2444 326.6082 0012887 129.9868 230.2505 15.26473985238331
MAX VALIER SAT          
1 42778U 17036P   21279.34752637  .00002422  00000-0  10254-3 0  9998
2 42778  97.2437 324.2803 0012976 139.1247 221.0967 15.24030172238179
PEGASUS                 
1 42784U 17036V   21279.68021828  .00003180  00000-0  13016-3 0  9994
2 42784  97.2387 325.1449 0012472 140.1419 220.0738 15.24956642238309
NUDTSAT                 
1 42787U 17036Y   21279.60151248  .00006385  00000-0  24177-3 0  9999
2 42787  97.2429 327.8643 0011515 132.6640 227.5556 15.27197389238299
SUCHAI                  
1 42788U 17036Z   21279.35573710  .00003779  00000-0  15011-3 0  9995
2 42788  97.2397 325.9727 0012005 137.9007 222.3156 15.25854354238396
SKCUBE                  
1 42789U 17036AA  21279.40566454  .00003502  00000-0  14063-3 0  9999
2 42789  97.2391 325.6770 0011918 138.4796 221.7350 15.25541129238302
VZLUSAT-1               
1 42790U 17036AB  21279.40118982  .00004779  00000-0  18190-3 0  9992
2 42790  97.2423 327.6577 0011341 133.4886 226.7298 15.27151730238417
ROBUSTA-1B              
1 42792U 17036AD  21279.68410946  .00003807  00000-0  15138-3 0  9999
2 42792  97.2393 326.3717 0011538 137.1837 223.0303 15.25816891238389
D-SAT                   
1 42794U 17036AF  21279.31242780  .00000653  00000-0  61326-4 0  9997
2 42794  97.4592 293.3064 0124296 214.8205 144.4836 14.91704850233587
NORSAT 2                
1 42828U 17042D   21279.63612182  .00000813  00000-0  85305-4 0  9995
2 42828  97.4605 144.8158 0015320 129.1904 231.0679 14.91976233230294
TECHNOSAT               
1 42829U 17042E   21279.63301549  .00000509  00000-0  56180-4 0  9999
2 42829  97.4516 143.1702 0015221 131.6306 228.6220 14.91357753230257
2017-042F               
1 42830U 17042F   21279.59611461  .00001584  00000-0  15675-3 0  9990
2 42830  97.4648 146.2130 0015050 123.0240 237.2429 14.93124887230389
FLYING LAPTOP           
1 42831U 17042G   21279.60564669  .00000233  00000-0  28478-4 0  9996
2 42831  97.4535 143.3984 0015023 131.7307 228.5183 14.91362069230250
CORVUS BC2              
1 42846U 17042X   21279.40159762  .00000309  00000-0  35253-4 0  9997
2 42846  97.4548 145.6492 0010789 122.1023 238.1246 14.92373741230383
CORVUS BC1              
1 42847U 17042Y   21279.36502400  .00000412  00000-0  45222-4 0  9996
2 42847  97.4552 145.8739 0010501 121.2538 238.9712 14.92469536230382
SIMPL                   
1 42983U 98067NF  21279.67456658  .00019039  00000-0  16353-3 0  9997
2 42983  51.6362  53.3386 0002980  44.9978 315.1260 15.69389046224859
CZ-4C R/B               
1 43012U 17072C   21279.32364796  .00000114  00000-0  34984-4 0  9996
2 43012  98.7263 299.1318 0127728  14.7318 345.7545 14.56203491206872
RADFXSAT (FOX-1B)       
1 43017U 17073E   21279.71115077  .00001709  00000-0  13699-3 0  9991
2 43017  97.6940 179.2296 0252746 297.4944  60.0783 14.79815814209578
EAGLESAT 1              
1 43018U 17073F   21279.25589282  .00002732  00000-0  21145-3 0  9996
2 43018  97.6954 179.8803 0248812 295.0282  62.5283 14.81035021209447
ECAMSAT                 
1 43019U 98067NG  21279.66944671  .00100405  14847-4  32685-3 0  9996
2 43019  51.6388   5.1453 0004602   7.7541 352.3536 15.90632366307811
INS-1C                  
1 43116U 18004F   21279.77152465  .00003605  00000-0  14412-3 0  9995
2 43116  97.4058 353.1893 0009450 160.2183 199.9423 15.25716665207618
FLOCK 3P'-3             
1 43119U 18004J   21279.14913652  .00002301  00000-0  96013-4 0  9992
2 43119  97.4045 351.2875 0010122 171.7045 188.4362 15.24646574207444
FLOCK 3P'-2             
1 43120U 18004K   21279.15049915  .00002156  00000-0  91129-4 0  9998
2 43120  97.4053 351.0399 0010109 172.3885 187.7507 15.24272718207424
FLOCK 3P'-1             
1 43121U 18004L   21279.77131028  .00008938  00000-0  32583-3 0  9996
2 43121  97.4051 354.1211 0009102 162.0457 198.1106 15.28369231207615
FLOCK 3P'-4             
1 43122U 18004M   21279.14412779  .00002096  00000-0  88629-4 0  9995
2 43122  97.4063 351.1571 0009836 174.0455 186.0901 15.24291399207423
MICROMAS-2A             
1 43131U 18004W   21279.20283434  .00005551  00000-0  20397-3 0  9992
2 43131  97.4040 354.4363 0008731 161.6615 198.4941 15.28291017207675
PICSAT                  
1 43132U 18004X   21279.19642413  .00003887  00000-0  15192-3 0  9994
2 43132  97.4014 352.7333 0009212 168.1827 191.9629 15.26430822207574
CNUSAIL-1               
1 43133U 18004Y   21279.16940894  .00002832  00000-0  11525-3 0  9991
2 43133  97.3980 351.4977 0009357 170.7161 189.4251 15.25297216207509
2018-004Z               
1 43134U 18004Z   21279.20945499  .00003525  00000-0  13976-3 0  9995
2 43134  97.4001 352.3491 0009176 169.5204 190.6228 15.26016235207553
FOX-1D (AO-92)          
1 43137U 18004AC  21279.71385555  .00003033  00000-0  12161-3 0  9994
2 43137  97.3984 352.5866 0008973 168.5392 191.6053 15.25742193207616
STEP CUBE LAB           
1 43138U 18004AD  21279.75365878  .00005523  00000-0  20613-3 0  9992
2 43138  97.4037 354.7460 0008704 164.1953 195.9559 15.27774615207746
XIAOXIANG-2             
1 43155U 18008A   21279.86707809  .00002235  00000-0  13071-3 0  9998
2 43155  97.3913 341.4417 0015787 307.0057 166.0761 15.12778180204919
